SPACEMOBILE-006         
1 67232U 25309A   26058.17621512  .00002832  00000+0  15308-3 0  9999
2 67232  52.9965 115.2953 0011507 148.5362 211.6322 15.17950230  9882
